NORAD_CAT_ID,OBJECT_NAME,OBJECT_TYPE,EPOCH,MEAN_MOTION,ECCENTRICITY,INCLINATION,RA_OF_ASC_NODE,ARG_OF_PERICENTER,MEAN_ANOMALY,BSTAR,MEAN_MOTION_DOT,MEAN_MOTION_DDOT,TLE_LINE0,TLE_LINE1,TLE_LINE2,SEMIMAJOR_AXIS,PERIOD,APOGEE,PERIGEE,DECAYED
50181.0,STARLINK-3285,PAYLOAD,2024-04-04 22:27:53,15.08845112,0.0001313,53.2153,168.4044,88.3133,271.801,0.0001427,1.984e-05,0.0,0 STARLINK-3285,1 50181U 21125AB  24095.93604130  .00001984  00000-0  14270-3 0  9991,2 50181  53.2153 168.4044 0001313  88.3133 271.8010 15.08845112130364,6917.865,95.437,540.638,538.821,0.0
50181.0,STARLINK-3285,PAYLOAD,2024-04-05 11:10:58,15.08850737,0.0001397,53.2163,166.0253,92.9444,267.1708,0.00016719,2.375e-05,0.0,0 STARLINK-3285,1 50181U 21125AB  24096.46595790  .00002375  00000-0  16719-3 0  9996,2 50181  53.2163 166.0253 0001397  92.9444 267.1708 15.08850737129953,6917.848,95.437,540.679,538.746,0.0
50181.0,STARLINK-3285,PAYLOAD,2024-04-05 14:21:44,15.08851944,0.0001494,53.2164,165.4304,99.6149,260.5012,0.00018804,2.707e-05,0.0,0 STARLINK-3285,1 50181U 21125AB  24096.59843647  .00002707  00000-0  18804-3 0  9993,2 50181  53.2164 165.4304 0001494  99.6149 260.5012 15.08851944130462,6917.844,95.437,540.742,538.675,0.0
50181.0,STARLINK-3285,PAYLOAD,2024-04-06 11:01:46,15.08838132,0.0001548,53.2163,161.5623,98.4615,261.6552,5.8574e-05,6.44e-06,0.0,0 STARLINK-3285,1 50181U 21125AB  24097.45956477  .00000644  00000-0  58574-4 0  9992,2 50181  53.2163 161.5623 0001548  98.4615 261.6552 15.08838132130103,6917.886,95.438,540.822,538.68,0.0
50181.0,STARLINK-3285,PAYLOAD,2024-04-06 14:12:32,15.08838,0.0001474,53.2165,160.9672,97.7864,262.3295,1.281e-05,-8.4e-07,0.0,0 STARLINK-3285,1 50181U 21125AB  24097.59204622 -.00000084  00000-0  12810-4 0  9997,2 50181  53.2165 160.9672 0001474  97.7864 262.3295 15.08838000130610,6917.887,95.438,540.771,538.732,0.0
50181.0,STARLINK-3285,PAYLOAD,2024-04-07 10:52:33,15.08843086,0.0001362,53.2163,157.1057,95.4289,264.6859,5.6026e-05,6.04e-06,0.0,0 STARLINK-3285,1 50181U 21125AB  24098.45316358  .00000604  00000-0  56026-4 0  9997,2 50181  53.2163 157.1057 0001362  95.4289 264.6859 15.08843086130740,6917.871,95.437,540.678,538.794,0.0
50181.0,STARLINK-3285,PAYLOAD,2024-04-07 20:24:52,15.0884295,0.0001312,53.2156,155.3223,93.7579,266.3563,-1.7064e-05,-5.59e-06,0.0,0 STARLINK-3285,1 50181U 21125AB  24098.85060478 -.00000559  00000-0 -17064-4 0  9990,2 50181  53.2156 155.3223 0001312  93.7579 266.3563 15.08842950130318,6917.871,95.437,540.644,538.829,0.0
50181.0,STARLINK-3285,PAYLOAD,2024-04-08 10:43:20,15.08839554,0.0001374,53.2159,152.6462,99.5842,260.5306,0.00011644,1.566e-05,0.0,0 STARLINK-3285,1 50181U 21125AB  24099.44676680  .00001566  00000-0  11644-3 0  9998,2 50181  53.2159 152.6462 0001374  99.5842 260.5306 15.08839554130891,6917.882,95.438,540.697,538.796,0.0
50181.0,STARLINK-3285,PAYLOAD,2024-04-09 12:09:31,15.08840279,0.0001354,53.2161,147.8888,98.5895,261.5251,8.7769e-05,1.109e-05,0.0,0 STARLINK-3285,1 50181U 21125AB  24100.50660920  .00001109  00000-0  87769-4 0  9993,2 50181  53.2161 147.8888 0001354  98.5895 261.5251 15.08840279130567,6917.88,95.438,540.681,538.808,0.0
50181.0,STARLINK-3285,PAYLOAD,2024-04-09 20:06:26,15.08840781,0.000133,53.2162,146.4014,94.3652,265.7492,8.7507e-05,1.105e-05,0.0,0 STARLINK-3285,1 50181U 21125AB  24100.83780883  .00001105  00000-0  87507-4 0  9996,2 50181  53.2162 146.4014 0001330  94.3652 265.7492 15.08840781131105,6917.878,95.438,540.663,538.823,0.0
50181.0,STARLINK-3285,PAYLOAD,2024-04-10 12:00:17,15.08848512,0.0001403,53.2167,143.4278,92.2842,267.8311,0.00012615,1.721e-05,0.0,0 STARLINK-3285,1 50181U 21125AB  24101.50020241  .00001721  00000-0  12615-3 0  9997,2 50181  53.2167 143.4278 0001403  92.2842 267.8311 15.08848512131202,6917.854,95.437,540.69,538.749,0.0
50181.0,STARLINK-3285,PAYLOAD,2024-04-10 19:57:13,15.08838619,0.0001454,53.2166,141.9395,83.066,277.0498,6.8518e-05,8.03e-06,0.0,0 STARLINK-3285,1 50181U 21125AB  24101.83141049  .00000803  00000-0  68518-4 0  9997,2 50181  53.2166 141.9395 0001454  83.0660 277.0498 15.08838619130762,6917.885,95.438,540.755,538.744,0.0
50181.0,STARLINK-3285,PAYLOAD,2024-04-11 10:15:42,15.08838393,0.0001418,53.2166,139.2611,86.9628,273.1526,4.4413e-05,4.19e-06,0.0,0 STARLINK-3285,1 50181U 21125AB  24102.42757175  .00000419  00000-0  44413-4 0  9997,2 50181  53.2166 139.2611 0001418  86.9628 273.1526 15.08838393131342,6917.885,95.438,540.731,538.769,0.0
50181.0,STARLINK-3285,PAYLOAD,2024-04-11 19:48:00,15.08841031,0.0001464,53.2168,137.4791,84.3231,275.7928,7.2775e-05,8.7e-06,0.0,0 STARLINK-3285,1 50181U 21125AB  24102.82501024  .00000870  00000-0  72775-4 0  9994,2 50181  53.2168 137.4791 0001464  84.3231 275.7928 15.08841031131400,6917.877,95.437,540.755,538.729,0.0
50181.0,STARLINK-3285,PAYLOAD,2024-04-12 02:09:33,15.08843603,0.0001488,53.2168,136.2895,84.0622,276.054,5.6458e-05,6.11e-06,0.0,0 STARLINK-3285,1 50181U 21125AB  24103.08996893  .00000611  00000-0  56458-4 0  9998,2 50181  53.2168 136.2895 0001488  84.0622 276.0540 15.08843603130959,6917.869,95.437,540.764,538.705,0.0
50181.0,STARLINK-3285,PAYLOAD,2024-04-12 08:31:05,15.08847514,0.0001466,53.2165,135.1001,82.4218,277.6941,5.4363e-05,5.77e-06,0.0,0 STARLINK-3285,1 50181U 21125AB  24103.35492628  .00000577  00000-0  54363-4 0  9999,2 50181  53.2165 135.1001 0001466  82.4218 277.6941 15.08847514131488,6917.857,95.437,540.737,538.708,0.0
50181.0,STARLINK-3285,PAYLOAD,2024-04-13 05:11:06,15.08840094,0.000148,53.2162,131.2343,80.6106,279.5053,0.00012996,1.781e-05,0.0,0 STARLINK-3285,1 50181U 21125AB  24104.21604973  .00001781  00000-0  12996-3 0  9996,2 50181  53.2162 131.2343 0001480  80.6106 279.5053 15.08840094131125,6917.88,95.438,540.769,538.721,0.0
50181.0,STARLINK-3285,PAYLOAD,2024-04-13 11:32:39,15.08843661,0.0001462,53.2163,130.0445,81.1017,279.0141,0.0001077,1.427e-05,0.0,0 STARLINK-3285,1 50181U 21125AB  24104.48100786  .00001427  00000-0  10770-3 0  9993,2 50181  53.2163 130.0445 0001462  81.1017 279.0141 15.08843661131657,6917.869,95.437,540.746,538.723,0.0
50181.0,STARLINK-3285,PAYLOAD,2024-04-14 06:37:16,15.08841188,0.0001546,53.2169,126.4746,89.3895,270.7274,3.3056e-05,2.38e-06,0.0,0 STARLINK-3285,1 50181U 21125AB  24105.27589070  .00000238  00000-0  33056-4 0  9990,2 50181  53.2169 126.4746 0001546  89.3895 270.7274 15.08841188131289,6917.877,95.437,540.811,538.672,0.0
50181.0,STARLINK-3285,PAYLOAD,2024-04-15 08:03:27,15.08837268,0.0001525,53.2169,121.716,95.0737,265.0429,4.6575e-05,4.53e-06,0.0,0 STARLINK-3285,1 50181U 21125AB  24106.33573406  .00000453  00000-0  46575-4 0  9993,2 50181  53.2169 121.7160 0001525  95.0737 265.0429 15.08837268131444,6917.889,95.438,540.809,538.699,0.0
50181.0,STARLINK-3285,PAYLOAD,2024-04-16 04:43:30,15.08820212,0.000163,53.2176,117.8564,103.2744,256.843,-3.1573e-05,-7.9e-06,0.0,0 STARLINK-3285,1 50181U 21125AB  24107.19687674 -.00000790  00000-0 -31573-4 0  9999,2 50181  53.2176 117.8564 0001630 103.2744 256.8430 15.08820212131578,6917.941,95.439,540.933,538.678,0.0
50181.0,STARLINK-3285,PAYLOAD,2024-04-16 07:54:16,15.08816229,0.0001387,53.2158,117.253,79.0692,281.0456,-8.5025e-05,-1.64e-05,0.0,0 STARLINK-3285,1 50181U 21125AB  24107.32936242 -.00001640  00000-0 -85025-4 0  9998,2 50181  53.2158 117.2530 0001387  79.0692 281.0456 15.08816229132084,6917.953,95.439,540.778,538.859,0.0
50181.0,STARLINK-3285,PAYLOAD,2024-04-17 04:34:16,15.08838825,0.000174,53.2177,113.3955,100.17,259.9488,0.00013019,1.784e-05,0.0,0 STARLINK-3285,1 50181U 21125AB  24108.19046943  .00001784  00000-0  13019-3 0  9994,2 50181  53.2177 113.3955 0001740 100.1700 259.9488 15.08838825131727,6917.884,95.438,540.953,538.545,0.0
50181.0,STARLINK-3285,PAYLOAD,2024-04-17 09:20:25,15.0885268,0.0001633,53.2159,112.4997,99.9066,260.211,0.00040687,6.195e-05,0.0,0 STARLINK-3285,1 50181U 21125AB  24108.38918457  .00006195  00000-0  40687-3 0  9995,2 50181  53.2159 112.4997 0001633  99.9066 260.2110 15.08852680131759,6917.842,95.437,540.836,538.577,0.0
50181.0,STARLINK-3285,PAYLOAD,2024-04-18 04:25:03,15.08839322,0.0001904,53.2169,108.9301,97.9383,262.1825,0.00039026,5.928e-05,0.0,0 STARLINK-3285,1 50181U 21125AB  24109.18407287  .00005928  00000-0  39026-3 0  9996,2 50181  53.2169 108.9301 0001904  97.9383 262.1825 15.08839322131875,6917.882,95.438,541.065,538.43,0.0
50181.0,STARLINK-3285,PAYLOAD,2024-04-18 09:11:12,15.08838156,0.0001537,53.2162,108.0369,108.6348,251.4811,0.00032921,4.955e-05,0.0,0 STARLINK-3285,1 50181U 21125AB  24109.38278603  .00004955  00000-0  32921-3 0  9992,2 50181  53.2162 108.0369 0001537 108.6348 251.4811 15.08838156132394,6917.886,95.438,540.814,538.688,0.0
50181.0,STARLINK-3285,PAYLOAD,2024-04-19 05:51:13,15.08853342,0.0001699,53.2173,104.1693,94.2658,265.8528,-6.5668e-05,-1.333e-05,0.0,0 STARLINK-3285,1 50181U 21125AB  24110.24390611 -.00001333  00000-0 -65668-4 0  9997,2 50181  53.2173 104.1693 0001699  94.2658 265.8528 15.08853342132035,6917.84,95.437,540.88,538.529,0.0
50181.0,STARLINK-3285,PAYLOAD,2024-04-20 05:41:59,15.08858658,0.0001807,53.2185,99.7034,82.825,277.2947,8.8882e-05,1.127e-05,0.0,0 STARLINK-3285,1 50181U 21125AB  24111.23749070  .00001127  00000-0  88882-4 0  9996,2 50181  53.2185  99.7034 0001807  82.8250 277.2947 15.08858658132181,6917.823,95.436,540.938,538.438,0.0
50181.0,STARLINK-3285,PAYLOAD,2024-04-21 03:57:24,15.0883084,0.0001587,53.217,95.5376,127.2612,232.8525,-8.9528e-05,-1.712e-05,0.0,0 STARLINK-3285,1 50181U 21125AB  24112.16487118 -.00001712  00000-0 -89528-4 0  9991,2 50181  53.2170  95.5376 0001587 127.2612 232.8525 15.08830840132327,6917.908,95.438,540.871,538.676,0.0
50181.0,STARLINK-3285,PAYLOAD,2024-04-21 08:43:34,15.0882605,0.0001966,53.2183,94.653,137.9114,222.2029,-0.00014444,-2.585e-05,0.0,0 STARLINK-3285,1 50181U 21125AB  24112.36359651 -.00002585  00000-0 -14444-3 0  9996,2 50181  53.2183  94.6530 0001966 137.9114 222.2029 15.08826050132846,6917.923,95.438,541.148,538.428,0.0
